[
    {
        "Altitude(m)": 559829.8354316436,
        "Argument of Periapsis(deg)": 0.019868973332140504,
        "Eccentricity": 0.0,
        "Inclination(deg)": 53.0,
        "Latitude(deg)": 52.8436847468232,
        "Longitude(deg)": -145.92309142681358,
        "Mean Anomaly(deg)": 84.82027860273277,
        "RAAN(deg)": 234.97043010558403,
        "Satellite Name": "Starlink Shell 1 1037",
        "Satellite Number": 1037,
        "Semi-Major Axis(m)": 6931778.249405717,
        "Time(s)": 570
    },
    {
        "Altitude(m)": 559845.8027745709,
        "Argument of Periapsis(deg)": 0.02021755181165174,
        "Eccentricity": 0.0,
        "Inclination(deg)": 53.0,
        "Latitude(deg)": 52.913610705881325,
        "Longitude(deg)": -144.93505098240703,
        "Mean Anomaly(deg)": 85.44710980628946,
        "RAAN(deg)": 234.96991133550654,
        "Satellite Name": "Starlink Shell 1 1037",
        "Satellite Number": 1037,
        "Semi-Major Axis(m)": 6931778.249405717,
        "Time(s)": 580
    },
    {
        "Altitude(m)": 559859.73348422,
        "Argument of Periapsis(deg)": 0.020566130291162974,
        "Eccentricity": 0.0,
        "Inclination(deg)": 53.0,
        "Latitude(deg)": 52.97459534128297,
        "Longitude(deg)": -143.9439045916425,
        "Mean Anomaly(deg)": 86.07394100984621,
        "RAAN(deg)": 234.96939256542913,
        "Satellite Name": "Starlink Shell 1 1037",
        "Satellite Number": 1037,
        "Semi-Major Axis(m)": 6931778.249405717,
        "Time(s)": 590
    },
    {
        "Altitude(m)": 559871.619235117,
        "Argument of Periapsis(deg)": 0.020914708770674213,
        "Eccentricity": 0.0,
        "Inclination(deg)": 53.0,
        "Latitude(deg)": 53.02659397885781,
        "Longitude(deg)": -142.95006422284013,
        "Mean Anomaly(deg)": 86.7007722134029,
        "RAAN(deg)": 234.96887379535164,
        "Satellite Name": "Starlink Shell 1 1037",
        "Satellite Number": 1037,
        "Semi-Major Axis(m)": 6931778.249405717,
        "Time(s)": 600
    },
    {
        "Altitude(m)": 559881.4529309593,
        "Argument of Periapsis(deg)": 0.021263287250185448,
        "Eccentricity": 0.0,
        "Inclination(deg)": 53.0,
        "Latitude(deg)": 53.0695682957985,
        "Longitude(deg)": -141.95394973870887,
        "Mean Anomaly(deg)": 87.32760341695965,
        "RAAN(deg)": 234.96835502527412,
        "Satellite Name": "Starlink Shell 1 1037",
        "Satellite Number": 1037,
        "Semi-Major Axis(m)": 6931778.249405717,
        "Time(s)": 610
    },
    {
        "Altitude(m)": 559889.2287080814,
        "Argument of Periapsis(deg)": 0.021611865729696686,
        "Eccentricity": 0.0,
        "Inclination(deg)": 53.0,
        "Latitude(deg)": 53.103486458401356,
        "Longitude(deg)": -140.95598721831405,
        "Mean Anomaly(deg)": 87.95443462051635,
        "RAAN(deg)": 234.96783625519672,
        "Satellite Name": "Starlink Shell 1 1037",
        "Satellite Number": 1037,
        "Semi-Major Axis(m)": 6931778.249405717,
        "Time(s)": 620
    },
    {
        "Altitude(m)": 559894.9419383014,
        "Argument of Periapsis(deg)": 0.02196044420920792,
        "Eccentricity": 0.0,
        "Inclination(deg)": 53.0,
        "Latitude(deg)": 53.12832323748188,
        "Longitude(deg)": -139.95660891163385,
        "Mean Anomaly(deg)": 88.58126582407304,
        "RAAN(deg)": 234.96731748511922,
        "Satellite Name": "Starlink Shell 1 1037",
        "Satellite Number": 1037,
        "Semi-Major Axis(m)": 6931778.249405717,
        "Time(s)": 630
    },
    {
        "Altitude(m)": 559898.589231158,
        "Argument of Periapsis(deg)": 0.02230902268871916,
        "Eccentricity": 0.0,
        "Inclination(deg)": 53.0,
        "Latitude(deg)": 53.14406010048478,
        "Longitude(deg)": -138.95625063267354,
        "Mean Anomaly(deg)": 89.20809702762979,
        "RAAN(deg)": 234.96679871504173,
        "Satellite Name": "Starlink Shell 1 1037",
        "Satellite Number": 1037,
        "Semi-Major Axis(m)": 6931778.249405717,
        "Time(s)": 640
    },
    {
        "Altitude(m)": 559900.1684355872,
        "Argument of Periapsis(deg)": 0.022657601168230398,
        "Eccentricity": 0.0,
        "Inclination(deg)": 53.0,
        "Latitude(deg)": 53.15068527951128,
        "Longitude(deg)": -137.95535164297675,
        "Mean Anomaly(deg)": 89.83492823118648,
        "RAAN(deg)": 234.96627994496427,
        "Satellite Name": "Starlink Shell 1 1037",
        "Satellite Number": 1037,
        "Semi-Major Axis(m)": 6931778.249405717,
        "Time(s)": 650
    },
    {
        "Altitude(m)": 559899.678640939,
        "Argument of Periapsis(deg)": 0.023006179647741636,
        "Eccentricity": 0.0,
        "Inclination(deg)": 53.0,
        "Latitude(deg)": 53.14819381467364,
        "Longitude(deg)": -136.95435283246186,
        "Mean Anomaly(deg)": 90.46175943474323,
        "RAAN(deg)": 234.96576117488678,
        "Satellite Name": "Starlink Shell 1 1037",
        "Satellite Number": 1037,
        "Semi-Major Axis(m)": 6931778.249405717,
        "Time(s)": 660
    },
    {
        "Altitude(m)": 559897.120177426,
        "Argument of Periapsis(deg)": 0.023354758127252868,
        "Eccentricity": 0.0,
        "Inclination(deg)": 53.0,
        "Latitude(deg)": 53.13658757240508,
        "Longitude(deg)": -135.9536948882078,
        "Mean Anomaly(deg)": 91.08859063829988,
        "RAAN(deg)": 234.96524240480932,
        "Satellite Name": "Starlink Shell 1 1037",
        "Satellite Number": 1037,
        "Semi-Major Axis(m)": 6931778.249405717,
        "Time(s)": 670
    },
    {
        "Altitude(m)": 559892.4946159641,
        "Argument of Periapsis(deg)": 0.023703336606764106,
        "Eccentricity": 0.0,
        "Inclination(deg)": 53.0,
        "Latitude(deg)": 53.115875238569096,
        "Longitude(deg)": -134.95381797387452,
        "Mean Anomaly(deg)": 91.71542184185662,
        "RAAN(deg)": 234.96472363473185,
        "Satellite Name": "Starlink Shell 1 1037",
        "Satellite Number": 1037,
        "Semi-Major Axis(m)": 6931778.249405717,
        "Time(s)": 680
    },
    {
        "Altitude(m)": 559885.8047673993,
        "Argument of Periapsis(deg)": 0.024051915086275345,
        "Eccentricity": 0.0,
        "Inclination(deg)": 53.0,
        "Latitude(deg)": 53.086072286423224,
        "Longitude(deg)": -133.9551599038682,
        "Mean Anomaly(deg)": 92.34225304541337,
        "RAAN(deg)": 234.96420486465436,
        "Satellite Name": "Starlink Shell 1 1037",
        "Satellite Number": 1037,
        "Semi-Major Axis(m)": 6931778.249405717,
        "Time(s)": 690
    },
    {
        "Altitude(m)": 559877.0546811318,
        "Argument of Periapsis(deg)": 0.024400493565786583,
        "Eccentricity": 0.0,
        "Inclination(deg)": 53.0,
        "Latitude(deg)": 53.04720091971638,
        "Longitude(deg)": -132.95815433486314,
        "Mean Anomaly(deg)": 92.96908424897006,
        "RAAN(deg)": 234.96368609457687,
        "Satellite Name": "Starlink Shell 1 1037",
        "Satellite Number": 1037,
        "Semi-Major Axis(m)": 6931778.249405717,
        "Time(s)": 700
    },
    {
        "Altitude(m)": 559866.2496431553,
        "Argument of Periapsis(deg)": 0.024749072045297815,
        "Eccentricity": 0.0,
        "Inclination(deg)": 53.0,
        "Latitude(deg)": 52.99928999141181,
        "Longitude(deg)": -131.96323049705686,
        "Mean Anomaly(deg)": 93.59591545252681,
        "RAAN(deg)": 234.96316732449947,
        "Satellite Name": "Starlink Shell 1 1037",
        "Satellite Number": 1037,
        "Semi-Major Axis(m)": 6931778.249405717,
        "Time(s)": 710
    },
    {
        "Altitude(m)": 559853.396173454,
        "Argument of Periapsis(deg)": 0.025097650524809053,
        "Eccentricity": 0.0,
        "Inclination(deg)": 53.0,
        "Latitude(deg)": 52.942374898726094,
        "Longitude(deg)": -130.9708114485551,
        "Mean Anomaly(deg)": 94.22274665608346,
        "RAAN(deg)": 234.96264855442197,
        "Satellite Name": "Starlink Shell 1 1037",
        "Satellite Number": 1037,
        "Semi-Major Axis(m)": 6931778.249405717,
        "Time(s)": 720
    },
    {
        "Altitude(m)": 559838.502022858,
        "Argument of Periapsis(deg)": 0.02544622900432029,
        "Eccentricity": 0.0,
        "Inclination(deg)": 53.0,
        "Latitude(deg)": 52.87649745537645,
        "Longitude(deg)": -129.98131237440433,
        "Mean Anomaly(deg)": 94.8495778596402,
        "RAAN(deg)": 234.96212978434446,
        "Satellite Name": "Starlink Shell 1 1037",
        "Satellite Number": 1037,
        "Semi-Major Axis(m)": 6931778.249405717,
        "Time(s)": 730
    },
    {
        "Altitude(m)": 559821.576169226,
        "Argument of Periapsis(deg)": 0.02579480748383153,
        "Eccentricity": 0.0,
        "Inclination(deg)": 53.0,
        "Latitude(deg)": 52.80170574210948,
        "Longitude(deg)": -128.99514045119645,
        "Mean Anomaly(deg)": 95.47640906319695,
        "RAAN(deg)": 234.96161101426702,
        "Satellite Name": "Starlink Shell 1 1037",
        "Satellite Number": 1037,
        "Semi-Major Axis(m)": 6931778.249405717,
        "Time(s)": 740
    },
    {
        "Altitude(m)": 559802.6288130989,
        "Argument of Periapsis(deg)": 0.026143385963342765,
        "Eccentricity": 0.0,
        "Inclination(deg)": 53.0,
        "Latitude(deg)": 52.71805393674278,
        "Longitude(deg)": -128.01269325885963,
        "Mean Anomaly(deg)": 96.10324026675364,
        "RAAN(deg)": 234.96109224418956,
        "Satellite Name": "Starlink Shell 1 1037",
        "Satellite Number": 1037,
        "Semi-Major Axis(m)": 6931778.249405717,
        "Time(s)": 750
    }
]